{
  "links" : {
    "next" : "https://api.nasa.gov/neo/rest/v1/feed?start_date=2015-05-16&end_date=2015-05-16&detailed=true&api_key=t0TVs3DtDT2H8Oy2Zy8m2eVrNsAVKAexjcZXUckd",
    "prev" : "https://api.nasa.gov/neo/rest/v1/feed?start_date=2015-05-14&end_date=2015-05-14&detailed=true&api_key=t0TVs3DtDT2H8Oy2Zy8m2eVrNsAVKAexjcZXUckd",
    "self" : "https://api.nasa.gov/neo/rest/v1/feed?start_date=2015-05-15&end_date=2015-05-15&detailed=true&api_key=t0TVs3DtDT2H8Oy2Zy8m2eVrNsAVKAexjcZXUckd"
  },
  "element_count" : 14,
  "near_earth_objects" : {
    "2015-05-15" : [ {
      "links" : {
        "self" : "https://api.nasa.gov/neo/rest/v1/neo/2438317?api_key=t0TVs3DtDT2H8Oy2Zy8m2eVrNsAVKAexjcZXUckd"
      },
      "neo_reference_id" : "2438317",
      "name" : "438317 (2006 JX)",
      "nasa_jpl_url" : "http://ssd.jpl.nasa.gov/sbdb.cgi?sstr=2438317",
      "absolute_magnitude_h" : 19.9,
      "estimated_diameter" : {
        "kilometers" : {
          "estimated_diameter_min" : 0.2783267681,
          "estimated_diameter_max" : 0.6223575734
        },
        "meters" : {
          "estimated_diameter_min" : 278.3267680719,
          "estimated_diameter_max" : 622.3575733667
        },
        "miles" : {
          "estimated_diameter_min" : 0.1729441822,
          "estimated_diameter_max" : 0.3867149477
        },
        "feet" : {
          "estimated_diameter_min" : 913.1455937611,
          "estimated_diameter_max" : 2041.8556210042
        }
      },
      "is_potentially_hazardous_asteroid" : false,
      "close_approach_data" : [ {
        "close_approach_date" : "2015-05-15",
        "epoch_date_close_approach" : 1431673200000,
        "relative_velocity" : {
          "kilometers_per_second" : "11.9809694479",
          "kilometers_per_hour" : "43131.4900123194",
          "miles_per_hour" : "26800.2305579326"
        },
        "miss_distance" : {
          "astronomical" : "0.4434667129",
          "lunar" : "172.5085601807",
          "kilometers" : "66341680",
          "miles" : "41222808"
        },
        "orbiting_body" : "Earth"
      } ],
      "orbital_data" : {
        "orbit_id" : "26",
        "orbit_determination_date" : "2017-04-06 09:20:36",
        "orbit_uncertainty" : "0",
        "minimum_orbit_intersection" : ".29611",
        "jupiter_tisserand_invariant" : "4.053",
        "epoch_osculation" : "2458000.5",
        "eccentricity" : ".2722361558110741",
        "semi_major_axis" : "1.709053610364655",
        "inclination" : "23.88857272715139",
        "ascending_node_longitude" : "233.3435284154863",
        "orbital_period" : "816.0785369993849",
        "perihelion_distance" : "1.243787425403944",
        "perihelion_argument" : "315.3943322450481",
        "aphelion_distance" : "2.174319795325366",
        "perihelion_time" : "2457897.327072281791",
        "mean_anomaly" : "45.51308764365081",
        "mean_motion" : ".4411340130616269",
        "equinox" : "J2000"
      }
    }, {
      "links" : {
        "self" : "https://api.nasa.gov/neo/rest/v1/neo/3565066?api_key=t0TVs3DtDT2H8Oy2Zy8m2eVrNsAVKAexjcZXUckd"
      },
      "neo_reference_id" : "3565066",
      "name" : "(2011 JM5)",
      "nasa_jpl_url" : "http://ssd.jpl.nasa.gov/sbdb.cgi?sstr=3565066",
      "absolute_magnitude_h" : 26.3,
      "estimated_diameter" : {
        "kilometers" : {
          "estimated_diameter_min" : 0.0146067964,
          "estimated_diameter_max" : 0.0326617897
        },
        "meters" : {
          "estimated_diameter_min" : 14.6067964271,
          "estimated_diameter_max" : 32.6617897446
        },
        "miles" : {
          "estimated_diameter_min" : 0.0090762397,
          "estimated_diameter_max" : 0.020295089
        },
        "feet" : {
          "estimated_diameter_min" : 47.92256199,
          "estimated_diameter_max" : 107.1581062656
        }
      },
      "is_potentially_hazardous_asteroid" : false,
      "close_approach_data" : [ {
        "close_approach_date" : "2015-05-15",
        "epoch_date_close_approach" : 1431673200000,
        "relative_velocity" : {
          "kilometers_per_second" : "22.3281710832",
          "kilometers_per_hour" : "80381.4158994548",
          "miles_per_hour" : "49945.8858959696"
        },
        "miss_distance" : {
          "astronomical" : "0.4982447463",
          "lunar" : "193.817199707",
          "kilometers" : "74536352",
          "miles" : "46314740"
        },
        "orbiting_body" : "Earth"
      } ],
      "orbital_data" : {
        "orbit_id" : "9",
        "orbit_determination_date" : "2017-04-06 08:53:31",
        "orbit_uncertainty" : "6",
        "minimum_orbit_intersection" : ".00576528",
        "jupiter_tisserand_invariant" : "6.742",
        "epoch_osculation" : "2458000.5",
        "eccentricity" : ".282259446189521",
        "semi_major_axis" : ".8736641864125078",
        "inclination" : "1.551459811285771",
        "ascending_node_longitude" : "52.15277228941832",
        "orbital_period" : "298.2738821954338",
        "perihelion_distance" : ".627064217000095",
        "perihelion_argument" : "32.31822769133481",
        "aphelion_distance" : "1.120264155824921",
        "perihelion_time" : "2457978.849739271025",
        "mean_anomaly" : "26.13066154187896",
        "mean_motion" : "1.20694442755173",
        "equinox" : "J2000"
      }
    }, {
      "links" : {
        "self" : "https://api.nasa.gov/neo/rest/v1/neo/3605857?api_key=t0TVs3DtDT2H8Oy2Zy8m2eVrNsAVKAexjcZXUckd"
      },
      "neo_reference_id" : "3605857",
      "name" : "(2012 MU2)",
      "nasa_jpl_url" : "http://ssd.jpl.nasa.gov/sbdb.cgi?sstr=3605857",
      "absolute_magnitude_h" : 20.8,
      "estimated_diameter" : {
        "kilometers" : {
          "estimated_diameter_min" : 0.1838886721,
          "estimated_diameter_max" : 0.411187571
        },
        "meters" : {
          "estimated_diameter_min" : 183.8886720703,
          "estimated_diameter_max" : 411.1875710413
        },
        "miles" : {
          "estimated_diameter_min" : 0.1142630881,
          "estimated_diameter_max" : 0.2555000322
        },
        "feet" : {
          "estimated_diameter_min" : 603.309310875,
          "estimated_diameter_max" : 1349.040630575
        }
      },
      "is_potentially_hazardous_asteroid" : true,
      "close_approach_data" : [ {
        "close_approach_date" : "2015-05-15",
        "epoch_date_close_approach" : 1431673200000,
        "relative_velocity" : {
          "kilometers_per_second" : "12.4631485828",
          "kilometers_per_hour" : "44867.3348981567",
          "miles_per_hour" : "27878.817064913"
        },
        "miss_distance" : {
          "astronomical" : "0.1148514949",
          "lunar" : "44.677230835",
          "kilometers" : "17181540",
          "miles" : "10676114"
        },
        "orbiting_body" : "Earth"
      } ],
      "orbital_data" : {
        "orbit_id" : "54",
        "orbit_determination_date" : "2017-04-06 08:49:32",
        "orbit_uncertainty" : "0",
        "minimum_orbit_intersection" : ".000450237",
        "jupiter_tisserand_invariant" : "3.589",
        "epoch_osculation" : "2458000.5",
        "eccentricity" : ".5141148119988089",
        "semi_major_axis" : "2.055035537737057",
        "inclination" : "11.22126482135278",
        "ascending_node_longitude" : "250.3328376470838",
        "orbital_period" : "1076.037561632348",
        "perihelion_distance" : ".9985113286024987",
        "perihelion_argument" : "16.5788781173077",
        "aphelion_distance" : "3.111559746871615",
        "perihelion_time" : "2458257.011717495304",
        "mean_anomaly" : "274.181231593604",
        "mean_motion" : ".3345608116633775",
        "equinox" : "J2000"
      }
    } ]
  }
}